{"type": "FeatureCollection", "features": [ {"type": "Feature", "properties": {"norad_id": 33867, "name": "IRIDIUM 33 DEB", "group": "iridium-33-debris", "lat": -21.804626041631163, "lon": -9.73929053490101, "alt_km": 390.7391789760777, "timestamp": "2025-12-09T14:52:26.547380+00:00", "meta": {"OBJECT_NAME": "IRIDIUM 33 DEB", "OBJECT_ID": "1997-051AL", "EPOCH": "2025-12-09T07:16:42.577248", "MEAN_MOTION": 15.61561351, "ECCENTRICITY": 0.00130955, "INCLINATION": 86.3627, "RA_OF_ASC_NODE": 351.8819, "ARG_OF_PERICENTER": 91.7647, "MEAN_ANOMALY": 268.5118, "EPHEMERIS_TYPE": 0, "CLASSIFICATION_TYPE": "U", "NORAD_CAT_ID": 33867, "ELEMENT_SET_NO": 999, "REV_AT_EPOCH": 89457, "BSTAR": 0.0082182428, "MEAN_MOTION_DOT": 0.0077434, "MEAN_MOTION_DDOT": 0}, "tle": {"line1": "1 33867U 97051AL  25343.30327057  .00774340  00000+0  82182-2 0  9990", "line2": "2 33867  86.3627 351.8819 0013095  91.7647 268.5118 15.61561351894576"}}, "geometry": {"type": "Point", "coordinates": [-9.73929053490101, -21.804626041631163]}}, {"type": "Feature", "properties": {"norad_id": 33870, "name": "IRIDIUM 33 DEB", "group": "iridium-33-debris", "lat": -62.58512041166663, "lon": 52.576922807335336, "alt_km": 751.4282528783106, "timestamp": "2025-12-09T14:52:26.547391+00:00", "meta": {"OBJECT_NAME": "IRIDIUM 33 DEB", "OBJECT_ID": "1997-051AP", "EPOCH": "2025-12-09T05:26:42.856224", "MEAN_MOTION": 14.45822095, "ECCENTRICITY": 0.00210862, "INCLINATION": 86.3746, "RA_OF_ASC_NODE": 59.7664, "ARG_OF_PERICENTER": 189.6475, "MEAN_ANOMALY": 223.8238, "EPHEMERIS_TYPE": 0, "CLASSIFICATION_TYPE": "U", "NORAD_CAT_ID": 33870, "ELEMENT_SET_NO": 999, "REV_AT_EPOCH": 88086, "BSTAR": 0.0012709581, "MEAN_MOTION_DOT": 4.541e-05, "MEAN_MOTION_DDOT": 0}, "tle": {"line1": "1 33870U 97051AP  25343.22688491  .00004541  00000+0  12710-2 0  9996", "line2": "2 33870  86.3746  59.7664 0021086 189.6475 223.8238 14.45822095880869"}}, "geometry": {"type": "Point", "coordinates": [52.576922807335336, -62.58512041166663]}}, {"type": "Feature", "properties": {"norad_id": 33881, "name": "IRIDIUM 33 DEB", "group": "iridium-33-debris", "lat": 44.73599445821902, "lon": 111.68745118716295, "alt_km": 733.9434546270822, "timestamp": "2025-12-09T14:52:26.547401+00:00", "meta": {"OBJECT_NAME": "IRIDIUM 33 DEB", "OBJECT_ID": "1997-051BA", "EPOCH": "2025-12-08T21:05:51.876096", "MEAN_MOTION": 14.5645843, "ECCENTRICITY": 0.0061428, "INCLINATION": 86.3871, "RA_OF_ASC_NODE": 108.42, "ARG_OF_PERICENTER": 187.1593, "MEAN_ANOMALY": 297.143, "EPHEMERIS_TYPE": 0, "CLASSIFICATION_TYPE": "U", "NORAD_CAT_ID": 33881, "ELEMENT_SET_NO": 999, "REV_AT_EPOCH": 87444, "BSTAR": 0.002467, "MEAN_MOTION_DOT": 0.00011273, "MEAN_MOTION_DDOT": 0}, "tle": {"line1": "1 33881U 97051BA  25342.87907264  .00011273  00000+0  24670-2 0  9998", "line2": "2 33881  86.3871 108.4200 0061428 187.1593 297.1430 14.56458430874441"}}, "geometry": {"type": "Point", "coordinates": [111.68745118716295, 44.73599445821902]}}, {"type": "Feature", "properties": {"norad_id": 33884, "name": "IRIDIUM 33 DEB", "group": "iridium-33-debris", "lat": 61.46828379206768, "lon": -175.48036724085222, "alt_km": 637.5109195221967, "timestamp": "2025-12-09T14:52:26.547412+00:00", "meta": {"OBJECT_NAME": "IRIDIUM 33 DEB", "OBJECT_ID": "1997-051BD", "EPOCH": "2025-12-09T01:28:11.764992", "MEAN_MOTION": 14.77315007, "ECCENTRICITY": 0.00100919, "INCLINATION": 86.3693, "RA_OF_ASC_NODE": 11.4785, "ARG_OF_PERICENTER": 337.7014, "MEAN_ANOMALY": 52.1212, "EPHEMERIS_TYPE": 0, "CLASSIFICATION_TYPE": "U", "NORAD_CAT_ID": 33884, "ELEMENT_SET_NO": 999, "REV_AT_EPOCH": 88793, "BSTAR": 0.0015599221, "MEAN_MOTION_DOT": 0.00011112, "MEAN_MOTION_DDOT": 0}, "tle": {"line1": "1 33884U 97051BD  25343.06124728  .00011112  00000+0  15599-2 0  9991", "line2": "2 33884  86.3693  11.4785 0010091 337.7014  52.1212 14.77315007887938"}}, "geometry": {"type": "Point", "coordinates": [-175.48036724085222, 61.46828379206768]}}, {"type": "Feature", "properties": {"norad_id": 33886, "name": "IRIDIUM 33 DEB", "group": "iridium-33-debris", "lat": 32.50175866520089, "lon": -113.76762175550596, "alt_km": 772.2025247777938, "timestamp": "2025-12-09T14:52:26.547422+00:00", "meta": {"OBJECT_NAME": "IRIDIUM 33 DEB", "OBJECT_ID": "1997-051BF", "EPOCH": "2025-12-09T07:48:13.464576", "MEAN_MOTION": 14.36046188, "ECCENTRICITY": 0.00121286, "INCLINATION": 86.3831, "RA_OF_ASC_NODE": 68.6659, "ARG_OF_PERICENTER": 254.8852, "MEAN_ANOMALY": 170.55, "EPHEMERIS_TYPE": 0, "CLASSIFICATION_TYPE": "U", "NORAD_CAT_ID": 33886, "ELEMENT_SET_NO": 999, "REV_AT_EPOCH": 88003, "BSTAR": 0.00037354639, "MEAN_MOTION_DOT": 1.106e-05, "MEAN_MOTION_DDOT": 0}, "tle": {"line1": "1 33886U 97051BF  25343.32515584  .00001106  00000+0  37355-3 0  9993", "line2": "2 33886  86.3831  68.6659 0012128 254.8852 170.5500 14.36046188880035"}}, "geometry": {"type": "Point", "coordinates": [-113.76762175550596, 32.50175866520089]}}, {"type": "Feature", "properties": {"norad_id": 33887, "name": "IRIDIUM 33 DEB", "group": "iridium-33-debris", "lat": 70.21456005571508, "lon": 15.086442302675424, "alt_km": 763.954148034074, "timestamp": "2025-12-09T14:52:26.547433+00:00", "meta": {"OBJECT_NAME": "IRIDIUM 33 DEB", "OBJECT_ID": "1997-051BG", "EPOCH": "2025-12-09T07:58:22.365984", "MEAN_MOTION": 14.37216828, "ECCENTRICITY": 0.00041941, "INCLINATION": 86.3047, "RA_OF_ASC_NODE": 4.8609, "ARG_OF_PERICENTER": 242.0671, "MEAN_ANOMALY": 141.6982, "EPHEMERIS_TYPE": 0, "CLASSIFICATION_TYPE": "U", "NORAD_CAT_ID": 33887, "ELEMENT_SET_NO": 999, "REV_AT_EPOCH": 88116, "BSTAR": 0.00025793494, "MEAN_MOTION_DOT": 7.87e-06, "MEAN_MOTION_DDOT": 0}, "tle": {"line1": "1 33887U 97051BG  25343.33220331  .00000787  00000+0  25793-3 0  9995", "line2": "2 33887  86.3047   4.8609 0004194 242.0671 141.6982 14.37216828881163"}}, "geometry": {"type": "Point", "coordinates": [15.086442302675424, 70.21456005571508]}}, {"type": "Feature", "properties": {"norad_id": 33953, "name": "IRIDIUM 33 DEB", "group": "iridium-33-debris", "lat": 82.30565232184996, "lon": 83.04158377538702, "alt_km": 689.6395718246085, "timestamp": "2025-12-09T14:52:26.547443+00:00", "meta": {"OBJECT_NAME": "IRIDIUM 33 DEB", "OBJECT_ID": "1997-051BN", "EPOCH": "2025-12-09T04:52:48.423936", "MEAN_MOTION": 14.55266937, "ECCENTRICITY": 0.00184703, "INCLINATION": 86.384, "RA_OF_ASC_NODE": 55.3141, "ARG_OF_PERICENTER": 113.5745, "MEAN_ANOMALY": 309.5735, "EPHEMERIS_TYPE": 0, "CLASSIFICATION_TYPE": "U", "NORAD_CAT_ID": 33953, "ELEMENT_SET_NO": 999, "REV_AT_EPOCH": 88252, "BSTAR": 0.0014360939, "MEAN_MOTION_DOT": 6.253e-05, "MEAN_MOTION_DDOT": 0}, "tle": {"line1": "1 33953U 97051BN  25343.20333824  .00006253  00000+0  14361-2 0  9999", "line2": "2 33953  86.3840  55.3141 0018470 113.5745 309.5735 14.55266937882524"}}, "geometry": {"type": "Point", "coordinates": [83.04158377538702, 82.30565232184996]}}, {"type": "Feature", "properties": {"norad_id": 33960, "name": "IRIDIUM 33 DEB", "group": "iridium-33-debris", "lat": -84.69503482877197, "lon": -113.89848647219578, "alt_km": 625.8615968149215, "timestamp": "2025-12-09T14:52:26.547454+00:00", "meta": {"OBJECT_NAME": "IRIDIUM 33 DEB", "OBJECT_ID": "1997-051BV", "EPOCH": "2025-12-09T07:42:37.373760", "MEAN_MOTION": 14.8489733, "ECCENTRICITY": 0.00073452, "INCLINATION": 86.2536, "RA_OF_ASC_NODE": 291.1258, "ARG_OF_PERICENTER": 67.4678, "MEAN_ANOMALY": 51.7843, "EPHEMERIS_TYPE": 0, "CLASSIFICATION_TYPE": "U", "NORAD_CAT_ID": 33960, "ELEMENT_SET_NO": 999, "REV_AT_EPOCH": 88816, "BSTAR": 0.0041556572, "MEAN_MOTION_DOT": 0.00035526, "MEAN_MOTION_DDOT": 0}, "tle": {"line1": "1 33960U 97051BV  25343.32126590  .00035526  00000+0  41557-2 0  9992", "line2": "2 33960  86.2536 291.1258 0007345  67.4678  51.7843 14.84897330888164"}}, "geometry": {"type": "Point", "coordinates": [-113.89848647219578, -84.69503482877197]}}, {"type": "Feature", "properties": {"norad_id": 33966, "name": "IRIDIUM 33 DEB", "group": "iridium-33-debris", "lat": -84.95009087038294, "lon": 1.8091764672149189, "alt_km": 733.1693208303204, "timestamp": "2025-12-09T14:52:26.547465+00:00", "meta": {"OBJECT_NAME": "IRIDIUM 33 DEB", "OBJECT_ID": "1997-051CB", "EPOCH": "2025-12-09T05:36:29.443968", "MEAN_MOTION": 14.49572478, "ECCENTRICITY": 0.00069989, "INCLINATION": 86.3924, "RA_OF_ASC_NODE": 47.5319, "ARG_OF_PERICENTER": 200.2452, "MEAN_ANOMALY": 219.7781, "EPHEMERIS_TYPE": 0, "CLASSIFICATION_TYPE": "U", "NORAD_CAT_ID": 33966, "ELEMENT_SET_NO": 999, "REV_AT_EPOCH": 88391, "BSTAR": 0.00091317712, "MEAN_MOTION_DOT": 3.524e-05, "MEAN_MOTION_DDOT": 0}, "tle": {"line1": "1 33966U 97051CB  25343.23367412  .00003524  00000+0  91318-3 0  9992", "line2": "2 33966  86.3924  47.5319 0006998 200.2452 219.7781 14.49572478883912"}}, "geometry": {"type": "Point", "coordinates": [1.8091764672149189, -84.95009087038294]}}, {"type": "Feature", "properties": {"norad_id": 34071, "name": "IRIDIUM 33 DEB", "group": "iridium-33-debris", "lat": -18.85503890846632, "lon": 17.93383683032953, "alt_km": 737.5100524072686, "timestamp": "2025-12-09T14:52:26.547476+00:00", "meta": {"OBJECT_NAME": "IRIDIUM 33 DEB", "OBJECT_ID": "1997-051CE", "EPOCH": "2025-12-09T03:21:46.784448", "MEAN_MOTION": 14.49438842, "ECCENTRICITY": 0.00098048, "INCLINATION": 86.3456, "RA_OF_ASC_NODE": 19.3928, "ARG_OF_PERICENTER": 117.2084, "MEAN_ANOMALY": 243.0121, "EPHEMERIS_TYPE": 0, "CLASSIFICATION_TYPE": "U", "NORAD_CAT_ID": 34071, "ELEMENT_SET_NO": 999, "REV_AT_EPOCH": 88282, "BSTAR": 0.00075639379, "MEAN_MOTION_DOT": 2.915e-05, "MEAN_MOTION_DDOT": 0}, "tle": {"line1": "1 34071U 97051CE  25343.14012482  .00002915  00000+0  75639-3 0  9995", "line2": "2 34071  86.3456  19.3928 0009804 117.2084 243.0121 14.49438842882823"}}, "geometry": {"type": "Point", "coordinates": [17.93383683032953, -18.85503890846632]}}]}